STARLINK-31707          
1 59736U 24090G   26067.39950523  .00000319  00000+0  21138-4 0  9993
2 59736  43.0032 190.7090 0001848 193.7061 166.3741 15.27582757103245
HERMES-2                
1 63243U 25052AK  26068.92847372  .00009456  00000+0  34839-3 0  9999
2 63243  97.4004 324.4926 0006340  99.4160 260.7796 15.28021069 54859
